CCSDS_OMM_VERS = 2.0
CREATION_DATE  = 
ORIGINATOR     = 

OBJECT_NAME    = SL-16 R/B
OBJECT_ID      = 1998-045B
CENTER_NAME    = EARTH
REF_FRAME      = TEME
TIME_SYSTEM    = UTC
MEAN_ELEMENT_THEORY = SGP/SGP4

EPOCH          = 2026-03-18T11:21:01.578816
MEAN_MOTION    = 14.16194741
ECCENTRICITY   = .00073421
INCLINATION    = 71.0120
RA_OF_ASC_NODE = 163.1046
ARG_OF_PERICENTER = 354.2052
MEAN_ANOMALY   = 5.8985

EPHEMERIS_TYPE = 0
CLASSIFICATION_TYPE = U
NORAD_CAT_ID   = 25407
ELEMENT_SET_NO = 999
REV_AT_EPOCH   = 42834
BSTAR          = .10103109E-3
MEAN_MOTION_DOT = .152E-5
MEAN_MOTION_DDOT = 0

CCSDS_OMM_VERS = 2.0
CREATION_DATE  = 
ORIGINATOR     = 

OBJECT_NAME    = ISS (ZARYA)
OBJECT_ID      = 1998-067A
CENTER_NAME    = EARTH
REF_FRAME      = TEME
TIME_SYSTEM    = UTC
MEAN_ELEMENT_THEORY = SGP/SGP4

EPOCH          = 2026-03-18T19:21:54.269568
MEAN_MOTION    = 15.48363739
ECCENTRICITY   = .00062067
INCLINATION    = 51.6341
RA_OF_ASC_NODE = 27.2872
ARG_OF_PERICENTER = 206.1039
MEAN_ANOMALY   = 153.9638

EPHEMERIS_TYPE = 0
CLASSIFICATION_TYPE = U
NORAD_CAT_ID   = 25544
ELEMENT_SET_NO = 999
REV_AT_EPOCH   = 55774
BSTAR          = .1683328E-3
MEAN_MOTION_DOT = .8636E-4
MEAN_MOTION_DDOT = 0

CCSDS_OMM_VERS = 2.0
CREATION_DATE  = 
ORIGINATOR     = 

OBJECT_NAME    = CZ-4B R/B
OBJECT_ID      = 1999-025C
CENTER_NAME    = EARTH
REF_FRAME      = TEME
TIME_SYSTEM    = UTC
MEAN_ELEMENT_THEORY = SGP/SGP4

EPOCH          = 2026-03-18T23:29:02.083776
MEAN_MOTION    = 14.18267164
ECCENTRICITY   = .00362999
INCLINATION    = 98.6607
RA_OF_ASC_NODE = 122.0393
ARG_OF_PERICENTER = 319.5100
MEAN_ANOMALY   = 105.0273

EPHEMERIS_TYPE = 0
CLASSIFICATION_TYPE = U
NORAD_CAT_ID   = 25732
ELEMENT_SET_NO = 999
REV_AT_EPOCH   = 38948
BSTAR          = .38870666E-4
MEAN_MOTION_DOT = .37E-6
MEAN_MOTION_DDOT = 0

CCSDS_OMM_VERS = 2.0
CREATION_DATE  = 
ORIGINATOR     = 

OBJECT_NAME    = OKEAN-O
OBJECT_ID      = 1999-039A
CENTER_NAME    = EARTH
REF_FRAME      = TEME
TIME_SYSTEM    = UTC
MEAN_ELEMENT_THEORY = SGP/SGP4

EPOCH          = 2026-03-18T21:53:35.585088
MEAN_MOTION    = 14.80350088
ECCENTRICITY   = .00010086
INCLINATION    = 97.9422
RA_OF_ASC_NODE = 137.7092
ARG_OF_PERICENTER = 75.5476
MEAN_ANOMALY   = 284.5848

EPHEMERIS_TYPE = 0
CLASSIFICATION_TYPE = U
NORAD_CAT_ID   = 25860
ELEMENT_SET_NO = 999
REV_AT_EPOCH   = 43575
BSTAR          = .83958018E-4
MEAN_MOTION_DOT = .588E-5
MEAN_MOTION_DDOT = 0

CCSDS_OMM_VERS = 2.0
CREATION_DATE  = 
ORIGINATOR     = 

OBJECT_NAME    = SL-16 R/B
OBJECT_ID      = 1999-039B
CENTER_NAME    = EARTH
REF_FRAME      = TEME
TIME_SYSTEM    = UTC
MEAN_ELEMENT_THEORY = SGP/SGP4

EPOCH          = 2026-03-18T21:12:06.234336
MEAN_MOTION    = 14.81743888
ECCENTRICITY   = .00138486
INCLINATION    = 97.9945
RA_OF_ASC_NODE = 136.9655
ARG_OF_PERICENTER = 223.7702
MEAN_ANOMALY   = 136.2414

EPHEMERIS_TYPE = 0
CLASSIFICATION_TYPE = U
NORAD_CAT_ID   = 25861
ELEMENT_SET_NO = 999
REV_AT_EPOCH   = 43822
BSTAR          = .69934233E-4
MEAN_MOTION_DOT = .498E-5
MEAN_MOTION_DDOT = 0

CCSDS_OMM_VERS = 2.0
CREATION_DATE  = 
ORIGINATOR     = 

OBJECT_NAME    = DELTA 2 R/B
OBJECT_ID      = 1999-041E
CENTER_NAME    = EARTH
REF_FRAME      = TEME
TIME_SYSTEM    = UTC
MEAN_ELEMENT_THEORY = SGP/SGP4

EPOCH          = 2026-03-18T18:52:15.646944
MEAN_MOTION    = 14.11862564
ECCENTRICITY   = .05025843
INCLINATION    = 51.7609
RA_OF_ASC_NODE = 264.9437
ARG_OF_PERICENTER = 15.2641
MEAN_ANOMALY   = 346.2844

EPHEMERIS_TYPE = 0
CLASSIFICATION_TYPE = U
NORAD_CAT_ID   = 25876
ELEMENT_SET_NO = 999
REV_AT_EPOCH   = 36431
BSTAR          = .1389617E-3
MEAN_MOTION_DOT = .619E-5
MEAN_MOTION_DDOT = 0

CCSDS_OMM_VERS = 2.0
CREATION_DATE  = 
ORIGINATOR     = 

OBJECT_NAME    = HELIOS 1B
OBJECT_ID      = 1999-064A
CENTER_NAME    = EARTH
REF_FRAME      = TEME
TIME_SYSTEM    = UTC
MEAN_ELEMENT_THEORY = SGP/SGP4

EPOCH          = 2026-03-18T23:53:26.797920
MEAN_MOTION    = 14.87734551
ECCENTRICITY   = .00022652
INCLINATION    = 98.1687
RA_OF_ASC_NODE = 340.5119
ARG_OF_PERICENTER = 62.1684
MEAN_ANOMALY   = 297.9760

EPHEMERIS_TYPE = 0
CLASSIFICATION_TYPE = U
NORAD_CAT_ID   = 25977
ELEMENT_SET_NO = 999
REV_AT_EPOCH   = 68664
BSTAR          = .16931288E-3
MEAN_MOTION_DOT = .1485E-4
MEAN_MOTION_DDOT = 0

CCSDS_OMM_VERS = 2.0
CREATION_DATE  = 
ORIGINATOR     = 

OBJECT_NAME    = TERRA
OBJECT_ID      = 1999-068A
CENTER_NAME    = EARTH
REF_FRAME      = TEME
TIME_SYSTEM    = UTC
MEAN_ELEMENT_THEORY = SGP/SGP4

EPOCH          = 2026-03-18T21:56:07.263744
MEAN_MOTION    = 14.61024244
ECCENTRICITY   = .00032304
INCLINATION    = 97.9573
RA_OF_ASC_NODE = 130.9955
ARG_OF_PERICENTER = 131.5343
MEAN_ANOMALY   = 42.9930

EPHEMERIS_TYPE = 0
CLASSIFICATION_TYPE = U
NORAD_CAT_ID   = 25994
ELEMENT_SET_NO = 999
REV_AT_EPOCH   = 39642
BSTAR          = .82642168E-4
MEAN_MOTION_DOT = .361E-5
MEAN_MOTION_DDOT = 0

CCSDS_OMM_VERS = 2.0
CREATION_DATE  = 
ORIGINATOR     = 

OBJECT_NAME    = SL-16 R/B
OBJECT_ID      = 2000-006B
CENTER_NAME    = EARTH
REF_FRAME      = TEME
TIME_SYSTEM    = UTC
MEAN_ELEMENT_THEORY = SGP/SGP4

EPOCH          = 2026-03-18T16:51:43.752672
MEAN_MOTION    = 14.15823787
ECCENTRICITY   = .00162723
INCLINATION    = 71.0004
RA_OF_ASC_NODE = 78.8843
ARG_OF_PERICENTER = 176.1794
MEAN_ANOMALY   = 183.9456

EPHEMERIS_TYPE = 0
CLASSIFICATION_TYPE = U
NORAD_CAT_ID   = 26070
ELEMENT_SET_NO = 999
REV_AT_EPOCH   = 34983
BSTAR          = -.49000886E-4
MEAN_MOTION_DOT = -.144E-5
MEAN_MOTION_DDOT = 0

CCSDS_OMM_VERS = 2.0
CREATION_DATE  = 
ORIGINATOR     = 

OBJECT_NAME    = TITAN 4B R/B
OBJECT_ID      = 2000-047B
CENTER_NAME    = EARTH
REF_FRAME      = TEME
TIME_SYSTEM    = UTC
MEAN_ELEMENT_THEORY = SGP/SGP4

EPOCH          = 2026-03-18T21:44:47.980032
MEAN_MOTION    = 15.09651478
ECCENTRICITY   = .00389936
INCLINATION    = 67.9912
RA_OF_ASC_NODE = 14.5925
ARG_OF_PERICENTER = 24.4720
MEAN_ANOMALY   = 335.8268

EPHEMERIS_TYPE = 0
CLASSIFICATION_TYPE = U
NORAD_CAT_ID   = 26474
ELEMENT_SET_NO = 999
REV_AT_EPOCH   = 39430
BSTAR          = .22710142E-3
MEAN_MOTION_DOT = .3592E-4
MEAN_MOTION_DDOT = 0

CCSDS_OMM_VERS = 2.0
CREATION_DATE  = 
ORIGINATOR     = 

OBJECT_NAME    = ENVISAT
OBJECT_ID      = 2002-009A
CENTER_NAME    = EARTH
REF_FRAME      = TEME
TIME_SYSTEM    = UTC
MEAN_ELEMENT_THEORY = SGP/SGP4

EPOCH          = 2026-03-18T20:27:30.371040
MEAN_MOTION    = 14.39040188
ECCENTRICITY   = .00013045
INCLINATION    = 98.3744
RA_OF_ASC_NODE = 31.2324
ARG_OF_PERICENTER = 82.4136
MEAN_ANOMALY   = 301.3441

EPHEMERIS_TYPE = 0
CLASSIFICATION_TYPE = U
NORAD_CAT_ID   = 27386
ELEMENT_SET_NO = 999
REV_AT_EPOCH   = 26049
BSTAR          = .47115049E-4
MEAN_MOTION_DOT = .103E-5
MEAN_MOTION_DDOT = 0

CCSDS_OMM_VERS = 2.0
CREATION_DATE  = 
ORIGINATOR     = 

OBJECT_NAME    = IDEFIX & ARIANE 42P R/B
OBJECT_ID      = 2002-021B
CENTER_NAME    = EARTH
REF_FRAME      = TEME
TIME_SYSTEM    = UTC
MEAN_ELEMENT_THEORY = SGP/SGP4

EPOCH          = 2026-03-18T20:45:46.134720
MEAN_MOTION    = 14.31032321
ECCENTRICITY   = .00121026
INCLINATION    = 98.5881
RA_OF_ASC_NODE = 16.3622
ARG_OF_PERICENTER = 155.3573
MEAN_ANOMALY   = 204.8191

EPHEMERIS_TYPE = 0
CLASSIFICATION_TYPE = U
NORAD_CAT_ID   = 27422
ELEMENT_SET_NO = 999
REV_AT_EPOCH   = 24533
BSTAR          = .1067971E-3
MEAN_MOTION_DOT = .238E-5
MEAN_MOTION_DDOT = 0

