SL-16 R/B               
1 25407U 98045B   26077.47293494  .00000152  00000+0  10103-3 0  9993
2 25407  71.0120 163.1046 0007342 354.2052   5.8985 14.16194741428343
ISS (ZARYA)             
1 25544U 98067A   26077.80687812  .00008636  00000+0  16833-3 0  9998
2 25544  51.6341  27.2872 0006206 206.1039 153.9638 15.48363739557747
CZ-4B R/B               
1 25732U 99025C   26077.97849634  .00000037  00000+0  38871-4 0  9996
2 25732  98.6607 122.0393 0036299 319.5100 105.0273 14.18267164389485
OKEAN-O                 
1 25860U 99039A   26077.91221742  .00000588  00000+0  83958-4 0  9998
2 25860  97.9422 137.7092 0001008  75.5476 284.5848 14.80350088435758
SL-16 R/B               
1 25861U 99039B   26077.88340549  .00000498  00000+0  69934-4 0  9990
2 25861  97.9945 136.9655 0013848 223.7702 136.2414 14.81743888438221
DELTA 2 R/B             
1 25876U 99041E   26077.78629221  .00000619  00000+0  13896-3 0  9995
2 25876  51.7609 264.9437 0502584  15.2641 346.2844 14.11862564364312
HELIOS 1B               
1 25977U 99064A   26077.99544905  .00001485  00000+0  16931-3 0  9995
2 25977  98.1687 340.5119 0002265  62.1684 297.9760 14.87734551686641
TERRA                   
1 25994U 99068A   26077.91397296  .00000361  00000+0  82642-4 0  9994
2 25994  97.9573 130.9955 0003230 131.5343  42.9930 14.61024244396420
SL-16 R/B               
1 26070U 00006B   26077.70258973 -.00000144  00000+0 -49001-4 0  9992
2 26070  71.0004  78.8843 0016272 176.1794 183.9456 14.15823787349839
TITAN 4B R/B            
1 26474U 00047B   26077.90611088  .00003592  00000+0  22710-3 0  9992
2 26474  67.9912  14.5925 0038993  24.4720 335.8268 15.09651478394306
ENVISAT                 
1 27386U 02009A   26077.85243485  .00000103  00000+0  47115-4 0  9993
2 27386  98.3744  31.2324 0001304  82.4136 301.3441 14.39040188260495
IDEFIX & ARIANE 42P R/B 
1 27422U 02021B   26077.86511730  .00000238  00000+0  10680-3 0  9995
2 27422  98.5881  16.3622 0012102 155.3573 204.8191 14.31032321245335
